GPS BIIR-2  (PRN 13)    
1 24876U 97035A   25167.24311276  .00000043  00000+0  00000+0 0  9993
2 24876  55.8094 112.8916 0091272  54.2363 306.5869  2.00562423204616
GPS BIIR-4  (PRN 20)    
1 26360U 00025A   25167.36103324 -.00000063  00000+0  00000+0 0  9995
2 26360  54.9346  34.0896 0036314 232.8693 299.6078  2.00550111183930
GPS BIIR-5  (PRN 22)    
1 26407U 00040A   25167.80104043  .00000037  00000+0  00000+0 0  9992
2 26407  54.9377 229.6803 0133090 298.6904  33.5109  2.00565822182619
GPS BIIR-8  (PRN 16)    
1 27663U 03005A   25167.60474965  .00000038  00000+0  00000+0 0  9993
2 27663  54.9725 229.4982 0142507  50.2170 278.0471  2.00554214163976
GPS BIIR-11 (PRN 19)    
1 28190U 04009A   25168.50481019 -.00000043  00000+0  00000+0 0  9999
2 28190  55.1373 290.3976 0105764 161.3318 255.7573  2.00567343155665
GPS BIIR-13 (PRN 02)    
1 28474U 04045A   25166.34697466 -.00000064  00000+0  00000+0 0  9992
2 28474  55.3236 339.6533 0165757 303.8153  54.9775  2.00561390151074
GPS BIIRM-1 (PRN 17)    
1 28874U 05038A   25167.40392477 -.00000035  00000+0  00000+0 0  9999
2 28874  55.1828 287.9159 0132576 290.1733  76.5188  2.00560257144506
GPS BIIRM-2 (PRN 31)    
1 29486U 06042A   25167.16573814  .00000095  00000+0  00000+0 0  9999
2 29486  54.6858 165.8624 0104090  46.5251  49.3067  2.00562681137051
GPS BIIRM-3 (PRN 12)    
1 29601U 06052A   25168.45924922  .00000040  00000+0  00000+0 0  9992
2 29601  55.0142 228.4696 0085163  86.5679 274.4837  2.00563307136133
GPS BIIRM-4 (PRN 15)    
1 32260U 07047A   25168.26709951  .00000008  00000+0  00000+0 0  9998
2 32260  53.8288  95.1346 0161421  81.5603 280.2637  2.00572167129511
GPS BIIRM-5 (PRN 29)    
1 32384U 07062A   25166.83297351 -.00000033  00000+0  00000+0 0  9998
2 32384  55.3307 288.8568 0032182 157.9727  15.3900  2.00568124128168
GPS BIIRM-6 (PRN 07)    
1 32711U 08012A   25167.68298976  .00000099  00000+0  00000+0 0  9997
2 32711  54.4648 164.5175 0199549 243.3635 114.5858  2.00558549126424
GPS BIIRM-8 (PRN 05)    
1 35752U 09043A   25167.41424709 -.00000057  00000+0  00000+0 0  9991
2 35752  55.9630  41.8524 0055643  78.3014 101.0921  2.00575662116029
GPS BIIF-1  (PRN 25)    
1 36585U 10022A   25167.60164223  .00000047  00000+0  00000+0 0  9996
2 36585  54.3381 223.2941 0120498  64.0641  11.8560  2.00569849110265
GPS BIIF-3  (PRN 24)    
1 38833U 12053A   25167.36418002  .00000093  00000+0  00000+0 0  9991
2 38833  53.5397 158.5805 0165981  60.6675 300.9767  2.00562918 92108
GPS BIIF-4  (PRN 27)    
1 39166U 13023A   25167.72646200 -.00000034  00000+0  00000+0 0  9998
2 39166  54.7984 283.8397 0133031  48.0884 313.0580  2.00560994 88558
GPS BIIF-5  (PRN 30)    
1 39533U 14008A   25167.22681392  .00000093  00000+0  00000+0 0  9990
2 39533  53.6168 164.2412 0078755 225.8948 133.4601  2.00563560 82346
GPS BIIF-6  (PRN 06)    
1 39741U 14026A   25167.50594248 -.00000062  00000+0  00000+0 0  9992
2 39741  56.6471 345.7395 0034787 320.0654  39.6935  2.00574149 81208
GPS BIIF-7  (PRN 09)    
1 40105U 14045A   25167.59445564  .00000025  00000+0  00000+0 0  9992
2 40105  55.1184 103.0494 0029390 116.0448 244.2482  2.00561055 78740
GPS BIIF-8  (PRN 03)    
1 40294U 14068A   25166.96523796 -.00000053  00000+0  00000+0 0  9992
2 40294  56.7211  45.0976 0061175  66.7597 293.9429  2.00553726 77860
GPS BIIF-9  (PRN 26)    
1 40534U 15013A   25167.10595193  .00000051  00000+0  00000+0 0  9994
2 40534  53.2363 219.3235 0098819  35.1544 325.5760  2.00573267 74485
GPS BIIF-10 (PRN 08)    
1 40730U 15033A   25167.26838659 -.00000030  00000+0  00000+0 0  9996
2 40730  54.2784 282.1521 0103959  25.1559 335.3694  2.00574954 72650
GPS BIIF-11 (PRN 10)    
1 41019U 15062A   25166.32582162 -.00000052  00000+0  00000+0 0  9994
2 41019  56.6970  44.9784 0103297 228.2182 130.9528  2.00566940 70471
GPS BIIF-12 (PRN 32)    
1 41328U 16007A   25166.90691693  .00000026  00000+0  00000+0 0  9991
2 41328  55.3013 103.9978 0087908 242.9076 116.1818  2.00569799 68496
GPS BIII-1  (PRN 04)    
1 43873U 18109A   25167.79661179  .00000032  00000+0  00000+0 0  9994
2 43873  55.4658 106.6166 0033585 197.1085 338.3285  2.00570625 47742
GPS BIII-2  (PRN 18)    
1 44506U 19056A   25167.94489383 -.00000063  00000+0  00000+0 0  9997
2 44506  55.7830 345.6438 0052715 193.0692 348.8329  2.00562104 42735
GPS BIII-3  (PRN 23)    
1 45854U 20041A   25166.76781028 -.00000054  00000+0  00000+0 0  9990
2 45854  56.4149  43.1945 0053407 199.0329 157.1160  2.00566581 36682
GPS BIII-4  (PRN 14)    
1 46826U 20078A   25167.79533589  .00000043  00000+0  00000+0 0  9998
2 46826  54.0594 225.6015 0060132 201.9465 144.8300  2.00558296 34177
GPS BIII-5  (PRN 11)    
1 48859U 21054A   25167.80795014 -.00000065  00000+0  00000+0 0  9991
2 48859  55.3163 347.1317 0019929 225.9416 320.8070  2.00563689 29419
GPS BIII-6  (PRN 28)    
1 55268U 23009A   25166.12799722  .00000087  00000+0  00000+0 0  9992
2 55268  55.0959 162.9353 0003512 327.1877 125.4068  2.00568923 17881
GPS BIII-7  (PRN 01)    
1 62339U 24242A   25167.13907061 -.00000067  00000+0  00000+0 0  9997
2 62339  54.9746 349.0082 0005672 349.4028 190.8509  2.00558537  3916
GPS BIII-8  (PRN 21)    
1 64202U 25116A   25164.41962602 -.00000056  00000+0  00000+0 0  9997
2 64202  54.9657  46.0054 0001479 293.6114 271.6270  2.00571266   473
